{"fetched_at":"2026-07-13T18:16:54.871Z","source":"https://celestrak.org/NORAD/elements/gp.php?NAME=GLOBAL&FORMAT=JSON","constellation":"blacksky-gen2","records":[{"OBJECT_NAME":"GLOBAL-2","OBJECT_ID":"2018-099BG","EPOCH":"2026-07-12T13:01:18.854112","CLASSIFICATION_TYPE":"U","MEAN_MOTION":15.08816851,"ECCENTRICITY":0.00075507,"INCLINATION":97.3547,"RA_OF_ASC_NODE":229.0016,"ARG_OF_PERICENTER":74.5757,"MEAN_ANOMALY":285.6306,"EPHEMERIS_TYPE":0,"NORAD_CAT_ID":43812,"ELEMENT_SET_NO":999,"REV_AT_EPOCH":41573,"BSTAR":0.000083393152,"MEAN_MOTION_DOT":0.00001252,"MEAN_MOTION_DDOT":0},{"OBJECT_NAME":"GLOBAL-4","OBJECT_ID":"2019-054E","EPOCH":"2026-07-12T23:34:06.920256","CLASSIFICATION_TYPE":"U","MEAN_MOTION":15.6691036,"ECCENTRICITY":0.00050015,"INCLINATION":45.0059,"RA_OF_ASC_NODE":87.2867,"ARG_OF_PERICENTER":181.6116,"MEAN_ANOMALY":178.4767,"EPHEMERIS_TYPE":0,"NORAD_CAT_ID":44499,"ELEMENT_SET_NO":999,"REV_AT_EPOCH":38440,"BSTAR":0.00041388718,"MEAN_MOTION_DOT":0.00044855,"MEAN_MOTION_DDOT":0},{"OBJECT_NAME":"GLOBAL-9","OBJECT_ID":"2021-023G","EPOCH":"2026-07-12T22:50:44.139264","CLASSIFICATION_TYPE":"U","MEAN_MOTION":15.47554402,"ECCENTRICITY":0.00031103,"INCLINATION":44.9824,"RA_OF_ASC_NODE":105.6057,"ARG_OF_PERICENTER":152.2834,"MEAN_ANOMALY":207.8222,"EPHEMERIS_TYPE":0,"NORAD_CAT_ID":47971,"ELEMENT_SET_NO":999,"REV_AT_EPOCH":29893,"BSTAR":0.00032426709,"MEAN_MOTION_DOT":0.00016739,"MEAN_MOTION_DDOT":0},{"OBJECT_NAME":"GLOBAL-14","OBJECT_ID":"2021-106A","EPOCH":"2026-07-13T05:26:05.520192","CLASSIFICATION_TYPE":"U","MEAN_MOTION":15.51760575,"ECCENTRICITY":0.00174612,"INCLINATION":42.0027,"RA_OF_ASC_NODE":136.186,"ARG_OF_PERICENTER":210.9439,"MEAN_ANOMALY":149.0377,"EPHEMERIS_TYPE":0,"NORAD_CAT_ID":49469,"ELEMENT_SET_NO":999,"REV_AT_EPOCH":26217,"BSTAR":0.00028514799,"MEAN_MOTION_DOT":0.00017286,"MEAN_MOTION_DDOT":0},{"OBJECT_NAME":"GLOBAL-12","OBJECT_ID":"2021-115BA","EPOCH":"2026-07-12T20:33:20.156256","CLASSIFICATION_TYPE":"U","MEAN_MOTION":15.55237714,"ECCENTRICITY":0.00027524,"INCLINATION":53.1952,"RA_OF_ASC_NODE":280.9648,"ARG_OF_PERICENTER":70.6953,"MEAN_ANOMALY":289.4357,"EPHEMERIS_TYPE":0,"NORAD_CAT_ID":49772,"ELEMENT_SET_NO":999,"REV_AT_EPOCH":25989,"BSTAR":0.00040346225,"MEAN_MOTION_DOT":0.0002739,"MEAN_MOTION_DDOT":0},{"OBJECT_NAME":"GLOBAL-13","OBJECT_ID":"2021-115BB","EPOCH":"2026-07-13T07:00:43.261632","CLASSIFICATION_TYPE":"U","MEAN_MOTION":15.47060644,"ECCENTRICITY":0.00008193,"INCLINATION":53.1976,"RA_OF_ASC_NODE":290.397,"ARG_OF_PERICENTER":156.1627,"MEAN_ANOMALY":203.942,"EPHEMERIS_TYPE":0,"NORAD_CAT_ID":49773,"ELEMENT_SET_NO":999,"REV_AT_EPOCH":25980,"BSTAR":0.00025826178,"MEAN_MOTION_DOT":0.00012865,"MEAN_MOTION_DDOT":0},{"OBJECT_NAME":"GLOBAL-17","OBJECT_ID":"2021-120A","EPOCH":"2026-07-13T06:19:47.759808","CLASSIFICATION_TYPE":"U","MEAN_MOTION":15.53651536,"ECCENTRICITY":0.00133962,"INCLINATION":41.994,"RA_OF_ASC_NODE":253.7476,"ARG_OF_PERICENTER":75.7169,"MEAN_ANOMALY":284.5163,"EPHEMERIS_TYPE":0,"NORAD_CAT_ID":49949,"ELEMENT_SET_NO":999,"REV_AT_EPOCH":25895,"BSTAR":0.00027496402,"MEAN_MOTION_DOT":0.00017808,"MEAN_MOTION_DDOT":0},{"OBJECT_NAME":"GLOBAL-16","OBJECT_ID":"2021-120B","EPOCH":"2026-07-12T12:58:53.501664","CLASSIFICATION_TYPE":"U","MEAN_MOTION":15.51399124,"ECCENTRICITY":0.00115644,"INCLINATION":41.9943,"RA_OF_ASC_NODE":262.2834,"ARG_OF_PERICENTER":59.6715,"MEAN_ANOMALY":300.5272,"EPHEMERIS_TYPE":0,"NORAD_CAT_ID":49950,"ELEMENT_SET_NO":999,"REV_AT_EPOCH":25878,"BSTAR":0.00027623827,"MEAN_MOTION_DOT":0.00016457,"MEAN_MOTION_DDOT":0},{"OBJECT_NAME":"GLOBAL-18","OBJECT_ID":"2022-034B","EPOCH":"2026-07-13T05:31:33.107520","CLASSIFICATION_TYPE":"U","MEAN_MOTION":15.47165251,"ECCENTRICITY":0.00043504,"INCLINATION":52.9804,"RA_OF_ASC_NODE":132.0865,"ARG_OF_PERICENTER":18.3325,"MEAN_ANOMALY":341.7837,"EPHEMERIS_TYPE":0,"NORAD_CAT_ID":52196,"ELEMENT_SET_NO":999,"REV_AT_EPOCH":24099,"BSTAR":0.00029288318,"MEAN_MOTION_DOT":0.00014709,"MEAN_MOTION_DDOT":0},{"OBJECT_NAME":"GLOBAL-19","OBJECT_ID":"2023-041B","EPOCH":"2026-07-13T00:05:06.750240","CLASSIFICATION_TYPE":"U","MEAN_MOTION":15.38645913,"ECCENTRICITY":0.00093255,"INCLINATION":42.0024,"RA_OF_ASC_NODE":51.2695,"ARG_OF_PERICENTER":204.195,"MEAN_ANOMALY":155.8453,"EPHEMERIS_TYPE":0,"NORAD_CAT_ID":55982,"ELEMENT_SET_NO":999,"REV_AT_EPOCH":18590,"BSTAR":0.00025300389,"MEAN_MOTION_DOT":0.00009634,"MEAN_MOTION_DDOT":0},{"OBJECT_NAME":"GLOBAL-5","OBJECT_ID":"2023-041C","EPOCH":"2026-07-12T23:18:43.069248","CLASSIFICATION_TYPE":"U","MEAN_MOTION":15.38658156,"ECCENTRICITY":0.0008154,"INCLINATION":42.0016,"RA_OF_ASC_NODE":50.984,"ARG_OF_PERICENTER":199.5354,"MEAN_ANOMALY":160.5175,"EPHEMERIS_TYPE":0,"NORAD_CAT_ID":55983,"ELEMENT_SET_NO":999,"REV_AT_EPOCH":18590,"BSTAR":0.00024209758,"MEAN_MOTION_DOT":0.00009207,"MEAN_MOTION_DDOT":0}]}
